{"type": "FeatureCollection", "features": [ {"type": "Feature", "properties": {"norad_id": 41469, "name": "IRNSS-1G", "group": "gnss", "lat": 4.271574861279527, "lon": -141.97113391197973, "alt_km": 35795.42930001231, "timestamp": "2025-12-27T23:26:37.604929+00:00", "meta": {"OBJECT_NAME": "IRNSS-1G", "OBJECT_ID": "2016-027A", "EPOCH": "2025-12-27T10:56:21.825024", "MEAN_MOTION": 1.00272659, "ECCENTRICITY": 0.0002741, "INCLINATION": 4.7706, "RA_OF_ASC_NODE": 101.722, "ARG_OF_PERICENTER": 325.6609, "MEAN_ANOMALY": 322.4712, "EPHEMERIS_TYPE": 0, "CLASSIFICATION_TYPE": "U", "NORAD_CAT_ID": 41469, "ELEMENT_SET_NO": 999, "REV_AT_EPOCH": 3545, "BSTAR": 0, "MEAN_MOTION_DOT": -3.13e-06, "MEAN_MOTION_DDOT": 0}, "tle": {"line1": "1 41469U 16027A   25361.45580816 -.00000313  00000+0  00000+0 0  9990", "line2": "2 41469   4.7706 101.7220 0002741 325.6609 322.4712  1.00272659 35458"}}, "geometry": {"type": "Point", "coordinates": [-141.97113391197973, 4.271574861279527]}}, {"type": "Feature", "properties": {"norad_id": 41549, "name": "GSAT0211 (GALILEO 14)", "group": "gnss", "lat": -52.762017266280836, "lon": 160.0059896349718, "alt_km": 23228.45365676806, "timestamp": "2025-12-27T23:26:37.604943+00:00", "meta": {"OBJECT_NAME": "GSAT0211 (GALILEO 14)", "OBJECT_ID": "2016-030A", "EPOCH": "2025-12-25T18:06:09.128448", "MEAN_MOTION": 1.70473226, "ECCENTRICITY": 0.00039908, "INCLINATION": 55.1481, "RA_OF_ASC_NODE": 226.465, "ARG_OF_PERICENTER": 16.0221, "MEAN_ANOMALY": 344.0794, "EPHEMERIS_TYPE": 0, "CLASSIFICATION_TYPE": "U", "NORAD_CAT_ID": 41549, "ELEMENT_SET_NO": 999, "REV_AT_EPOCH": 5971, "BSTAR": 0, "MEAN_MOTION_DOT": 7e-07, "MEAN_MOTION_DDOT": 0}, "tle": {"line1": "1 41549U 16030A   25359.75427232  .00000070  00000+0  00000+0 0  9994", "line2": "2 41549  55.1481 226.4650 0003990  16.0221 344.0794  1.70473226 59712"}}, "geometry": {"type": "Point", "coordinates": [160.0059896349718, -52.762017266280836]}}, {"type": "Feature", "properties": {"norad_id": 41550, "name": "GSAT0210 (GALILEO 13)", "group": "gnss", "lat": 41.532431039216796, "lon": 8.317833335426705, "alt_km": 23216.486321177737, "timestamp": "2025-12-27T23:26:37.604955+00:00", "meta": {"OBJECT_NAME": "GSAT0210 (GALILEO 13)", "OBJECT_ID": "2016-030B", "EPOCH": "2025-12-26T00:16:47.841312", "MEAN_MOTION": 1.70473562, "ECCENTRICITY": 5.77e-05, "INCLINATION": 55.1475, "RA_OF_ASC_NODE": 226.456, "ARG_OF_PERICENTER": 190.7717, "MEAN_ANOMALY": 169.315, "EPHEMERIS_TYPE": 0, "CLASSIFICATION_TYPE": "U", "NORAD_CAT_ID": 41550, "ELEMENT_SET_NO": 999, "REV_AT_EPOCH": 5971, "BSTAR": 0, "MEAN_MOTION_DOT": 7e-07, "MEAN_MOTION_DDOT": 0}, "tle": {"line1": "1 41550U 16030B   25360.01166483  .00000070  00000+0  00000+0 0  9995", "line2": "2 41550  55.1475 226.4560 0000577 190.7717 169.3150  1.70473562 59712"}}, "geometry": {"type": "Point", "coordinates": [8.317833335426705, 41.532431039216796]}}, {"type": "Feature", "properties": {"norad_id": 41586, "name": "BEIDOU-2 G7 (C03)", "group": "gnss", "lat": 1.350595666084613, "lon": -161.13698202374232, "alt_km": 35796.4173301751, "timestamp": "2025-12-27T23:26:37.604966+00:00", "meta": {"OBJECT_NAME": "BEIDOU-2 G7 (C03)", "OBJECT_ID": "2016-037A", "EPOCH": "2025-12-27T11:48:49.644864", "MEAN_MOTION": 1.00277493, "ECCENTRICITY": 0.0005217, "INCLINATION": 1.7909, "RA_OF_ASC_NODE": 67.9201, "ARG_OF_PERICENTER": 7.7037, "MEAN_ANOMALY": 308.2431, "EPHEMERIS_TYPE": 0, "CLASSIFICATION_TYPE": "U", "NORAD_CAT_ID": 41586, "ELEMENT_SET_NO": 999, "REV_AT_EPOCH": 516, "BSTAR": 0, "MEAN_MOTION_DOT": -3.32e-06, "MEAN_MOTION_DDOT": 0}, "tle": {"line1": "1 41586U 16037A   25361.49224126 -.00000332  00000+0  00000+0 0  9995", "line2": "2 41586   1.7909  67.9201 0005217   7.7037 308.2431  1.00277493  5162"}}, "geometry": {"type": "Point", "coordinates": [-161.13698202374232, 1.350595666084613]}}, {"type": "Feature", "properties": {"norad_id": 41589, "name": "EUTELSAT 117 WEST B (WAAS/PRN 131)", "group": "gnss", "lat": 0.005969411499659139, "lon": -28.649263026349043, "alt_km": 35785.88511738978, "timestamp": "2025-12-27T23:26:37.604978+00:00", "meta": {"OBJECT_NAME": "EUTELSAT 117 WEST B (WAAS/PRN 131)", "OBJECT_ID": "2016-038B", "EPOCH": "2025-12-27T07:38:14.830080", "MEAN_MOTION": 1.00273464, "ECCENTRICITY": 1.53e-05, "INCLINATION": 0.0038, "RA_OF_ASC_NODE": 165.68, "ARG_OF_PERICENTER": 47.668, "MEAN_ANOMALY": 240.2602, "EPHEMERIS_TYPE": 0, "CLASSIFICATION_TYPE": "U", "NORAD_CAT_ID": 41589, "ELEMENT_SET_NO": 999, "REV_AT_EPOCH": 3494, "BSTAR": 0, "MEAN_MOTION_DOT": 1.1e-07, "MEAN_MOTION_DDOT": 0}, "tle": {"line1": "1 41589U 16038B   25361.31822720  .00000011  00000+0  00000+0 0  9997", "line2": "2 41589   0.0038 165.6800 0000153  47.6680 240.2602  1.00273464 34949"}}, "geometry": {"type": "Point", "coordinates": [-28.649263026349043, 0.005969411499659139]}}, {"type": "Feature", "properties": {"norad_id": 41859, "name": "GSAT0207 (GALILEO 15)", "group": "gnss", "lat": -35.386664980150094, "lon": 76.49593801279615, "alt_km": 23219.273784359146, "timestamp": "2025-12-27T23:26:37.604989+00:00", "meta": {"OBJECT_NAME": "GSAT0207 (GALILEO 15)", "OBJECT_ID": "2016-069A", "EPOCH": "2025-12-22T04:24:39.710016", "MEAN_MOTION": 1.70474442, "ECCENTRICITY": 0.00024396, "INCLINATION": 55.3874, "RA_OF_ASC_NODE": 105.9888, "ARG_OF_PERICENTER": 317.4324, "MEAN_ANOMALY": 42.5257, "EPHEMERIS_TYPE": 0, "CLASSIFICATION_TYPE": "U", "NORAD_CAT_ID": 41859, "ELEMENT_SET_NO": 999, "REV_AT_EPOCH": 5638, "BSTAR": 0, "MEAN_MOTION_DOT": 6e-08, "MEAN_MOTION_DDOT": 0}, "tle": {"line1": "1 41859U 16069A   25356.18379294  .00000006  00000+0  00000+0 0  9997", "line2": "2 41859  55.3874 105.9888 0002439 317.4324  42.5257  1.70474442 56382"}}, "geometry": {"type": "Point", "coordinates": [76.49593801279615, -35.386664980150094]}}, {"type": "Feature", "properties": {"norad_id": 41860, "name": "GSAT0212 (GALILEO 16)", "group": "gnss", "lat": 35.712844037749704, "lon": 135.54657207492818, "alt_km": 23212.302582090684, "timestamp": "2025-12-27T23:26:37.605000+00:00", "meta": {"OBJECT_NAME": "GSAT0212 (GALILEO 16)", "OBJECT_ID": "2016-069B", "EPOCH": "2025-12-26T03:26:41.871552", "MEAN_MOTION": 1.70474669, "ECCENTRICITY": 0.00020518, "INCLINATION": 55.3873, "RA_OF_ASC_NODE": 105.8745, "ARG_OF_PERICENTER": 19.1308, "MEAN_ANOMALY": 340.872, "EPHEMERIS_TYPE": 0, "CLASSIFICATION_TYPE": "U", "NORAD_CAT_ID": 41860, "ELEMENT_SET_NO": 999, "REV_AT_EPOCH": 5670, "BSTAR": 0, "MEAN_MOTION_DOT": 1.8e-07, "MEAN_MOTION_DDOT": 0}, "tle": {"line1": "1 41860U 16069B   25360.14354018  .00000018  00000+0  00000+0 0  9990", "line2": "2 41860  55.3873 105.8745 0002051  19.1308 340.8720  1.70474669 56708"}}, "geometry": {"type": "Point", "coordinates": [135.54657207492818, 35.712844037749704]}}, {"type": "Feature", "properties": {"norad_id": 41861, "name": "GSAT0213 (GALILEO 17)", "group": "gnss", "lat": 0.36987874210866933, "lon": -74.42527580375231, "alt_km": 23224.29337451782, "timestamp": "2025-12-27T23:26:37.605011+00:00", "meta": {"OBJECT_NAME": "GSAT0213 (GALILEO 17)", "OBJECT_ID": "2016-069C", "EPOCH": "2025-12-25T22:11:16.691136", "MEAN_MOTION": 1.70474838, "ECCENTRICITY": 0.0002917, "INCLINATION": 55.3899, "RA_OF_ASC_NODE": 105.8882, "ARG_OF_PERICENTER": 282.7957, "MEAN_ANOMALY": 77.1667, "EPHEMERIS_TYPE": 0, "CLASSIFICATION_TYPE": "U", "NORAD_CAT_ID": 41861, "ELEMENT_SET_NO": 999, "REV_AT_EPOCH": 5656, "BSTAR": 0, "MEAN_MOTION_DOT": 1.8e-07, "MEAN_MOTION_DDOT": 0}, "tle": {"line1": "1 41861U 16069C   25359.92449874  .00000018  00000+0  00000+0 0  9990", "line2": "2 41861  55.3899 105.8882 0002917 282.7957  77.1667  1.70474838 56560"}}, "geometry": {"type": "Point", "coordinates": [-74.42527580375231, 0.36987874210866933]}}, {"type": "Feature", "properties": {"norad_id": 41862, "name": "GSAT0214 (GALILEO 18)", "group": "gnss", "lat": 55.40659167232195, "lon": -164.23172798963634, "alt_km": 23220.20910997201, "timestamp": "2025-12-27T23:26:37.605022+00:00", "meta": {"OBJECT_NAME": "GSAT0214 (GALILEO 18)", "OBJECT_ID": "2016-069D", "EPOCH": "2025-12-27T05:50:53.189088", "MEAN_MOTION": 1.70474774, "ECCENTRICITY": 0.0001607, "INCLINATION": 55.3883, "RA_OF_ASC_NODE": 105.8444, "ARG_OF_PERICENTER": 288.5964, "MEAN_ANOMALY": 71.3802, "EPHEMERIS_TYPE": 0, "CLASSIFICATION_TYPE": "U", "NORAD_CAT_ID": 41862, "ELEMENT_SET_NO": 999, "REV_AT_EPOCH": 5671, "BSTAR": 0, "MEAN_MOTION_DOT": 1.5e-07, "MEAN_MOTION_DDOT": 0}, "tle": {"line1": "1 41862U 16069D   25361.24367117  .00000015  00000+0  00000+0 0  9995", "line2": "2 41862  55.3883 105.8444 0001607 288.5964  71.3802  1.70474774 56718"}}, "geometry": {"type": "Point", "coordinates": [-164.23172798963634, 55.40659167232195]}}, {"type": "Feature", "properties": {"norad_id": 42709, "name": "SES-15 (WAAS/PRN 133)", "group": "gnss", "lat": -0.016455799065271157, "lon": -40.83838918059848, "alt_km": 35783.70913536346, "timestamp": "2025-12-27T23:26:37.605037+00:00", "meta": {"OBJECT_NAME": "SES-15 (WAAS/PRN 133)", "OBJECT_ID": "2017-026A", "EPOCH": "2025-12-27T07:38:38.830272", "MEAN_MOTION": 1.00267743, "ECCENTRICITY": 9e-05, "INCLINATION": 0.0202, "RA_OF_ASC_NODE": 336.3398, "ARG_OF_PERICENTER": 6.9478, "MEAN_ANOMALY": 98.251, "EPHEMERIS_TYPE": 0, "CLASSIFICATION_TYPE": "U", "NORAD_CAT_ID": 42709, "ELEMENT_SET_NO": 999, "REV_AT_EPOCH": 571, "BSTAR": 0, "MEAN_MOTION_DOT": 8.3e-07, "MEAN_MOTION_DDOT": 0}, "tle": {"line1": "1 42709U 17026A   25361.31850498  .00000083  00000+0  00000+0 0  9992", "line2": "2 42709   0.0202 336.3398 0000900   6.9478  98.2510  1.00267743  5714"}}, "geometry": {"type": "Point", "coordinates": [-40.83838918059848, -0.016455799065271157]}}]}